[{"OBJECT_NAME":"ORBCOMM FM04","OBJECT_ID":"1998-007C","EPOCH":"2026-03-09T14:44:15.821664","MEAN_MOTION":14.35529153,"ECCENTRICITY":0.0038795,"INCLINATION":107.9614,"RA_OF_ASC_NODE":324.5497,"ARG_OF_PERICENTER":142.9338,"MEAN_ANOMALY":217.4493,"EPHEMERIS_TYPE":0,"CLASSIFICATION_TYPE":"U","NORAD_CAT_ID":25159,"ELEMENT_SET_NO":999,"REV_AT_EPOCH":46230,"BSTAR":0.0004125,"MEAN_MOTION_DOT":1.067e-5,"MEAN_MOTION_DDOT":0},{"OBJECT_NAME":"COSMOS 1048","OBJECT_ID":"1978-105A","EPOCH":"2026-03-09T15:50:11.230080","MEAN_MOTION":14.35224026,"ECCENTRICITY":0.00174853,"INCLINATION":74.0278,"RA_OF_ASC_NODE":157.6322,"ARG_OF_PERICENTER":294.1478,"MEAN_ANOMALY":65.7845,"EPHEMERIS_TYPE":0,"CLASSIFICATION_TYPE":"U","NORAD_CAT_ID":11111,"ELEMENT_SET_NO":999,"REV_AT_EPOCH":47381,"BSTAR":7.6773562e-5,"MEAN_MOTION_DOT":1.94e-6,"MEAN_MOTION_DDOT":0}]
